#aV2012  7 27  0  0  0.00000000     288 DD+AD WGS84 FIT  NGA
## 1698 432000.00000000   300.00000000 56135 0.0000000000000
+   31     1  2  3  4  5  6  7  8  9 10 11 12 13 14 15 16 17
+         18 19 20 21 22 23 25 26 27 28 29 30 31 32  0  0  0
+          0  0  0  0  0  0  0  0  0  0  0  0  0  0  0  0  0
+          0  0  0  0  0  0  0  0  0  0  0  0  0  0  0  0  0
+          0  0  0  0  0  0  0  0  0  0  0  0  0  0  0  0  0
++         2  2  2  2  2  2  2  2  2  2  2  2  2  2  2  2  2
++         2  2  2  2  2  2  2  2  2  2  2  2  2  2  2  0  0
++         0  0  0  0  0  0  0  0  0  0  0  0  0  0  0  0  0
++         0  0  0  0  0  0  0  0  0  0  0  0  0  0  0  0  0
++         0  0  0  0  0  0  0  0  0  0  0  0  0  0  0  0  0
%c cc cc ccc ccc cccc cccc cccc cccc ccccc ccccc ccccc ccccc
%c cc cc ccc ccc cccc cccc cccc cccc ccccc ccccc ccccc ccccc
%f  0.0000000  0.000000000  0.00000000000  0.000000000000000
%f  0.0000000  0.000000000  0.00000000000  0.000000000000000
%i    0    0    0    0      0      0      0      0         0
%i    0    0    0    0      0      0      0      0         0
/*      NGA, ST. LOUIS,MO.                                  
/*   EPHEMERIS COMPUTED FROM  1 DAYS OF DATA
/*   EPOCHA SMOOTHER  
/* CCCCCCCCCCCCCCCCCCCCCCCCCCCCCCCCCCCCCCCCCCCCCCCCCCCCCCCCC
*  2012  7 27  4 55  0.00000000                                                 
P  1  -4889.598610  17633.958039 -19242.662342    267.184840                    
V  1 -22367.159389   9927.537244  14831.271299      0.015323                    
P  2  22312.942924 -13726.348970   2270.042184    398.039127                    
V  2   4290.950214   2180.207191 -31403.916147      0.011603                    
P  3 -10768.776049  17350.878282  16360.323184     80.451141                    
V  3  -4423.091717 -21591.258182  19682.991894      0.047784                    
P  4  24455.693183  -4050.287294 -10207.167709    255.964683                    
V  4  -9887.653866   8208.152307 -27327.540569      0.114111                    
P  5  14552.315606  -8167.249685  20672.953965   -338.255256                    
V  5  21586.775989  15042.722599  -9116.507840     -0.033645                    
P  6 -13884.214757  12246.716683  19044.441800      1.121339                    
V  6  -1872.034109 -24118.382201  14540.918769     -0.057422                    
P  7   9777.272556  11657.065692  21817.495147    104.545927                    
V  7 -24696.379615  12267.592966   4250.590397      0.039035                    
P  8  21366.711661   2785.299625  15990.038226      1.823907                    
V  8 -18255.118607   7867.078155  22560.175371      0.000515                    
P  9   9374.357465 -18073.920144 -17642.381670    174.493990                    
V  9  19343.747196  -8835.886497  19912.817733      0.025582                    
P 10  23633.798095   7528.257897   9777.694447    -46.170201                    
V 10   8964.004413   9366.629974 -27744.817939     -0.012919                    
P 11  -7841.114437  21797.909769 -13114.137854   -285.882835                    
V 11 -14755.649324   8170.582595  23421.559425     -0.039145                    
P 12  -3488.793315 -18063.054508 -19246.200515     82.124278                    
V 12  20552.032885  12975.470115 -15728.507509      0.020643                    
P 13   6225.286114  21513.219617  14052.651861    191.991763                    
V 13  -4322.146071  17636.799254 -24945.142683     -0.024649                    
P 14 -13990.542407  -5773.370145 -21654.464933    208.180077                    
V 14   3637.747905 -27636.002832   4828.910145      0.012111                    
P 15   4322.419138 -25623.985948   4895.362129    -92.959948                    
V 15   3229.566600   6378.100539  30708.302414     -0.004412                    
P 16 -14743.993256   6789.791451  21084.159026   -242.168300                    
V 16 -21377.137974 -15923.060112  -9512.403565     -0.009965                    
P 17  14219.573681   6712.378056 -21258.281163    110.077807                    
V 17  -2935.067183  27215.472267   6342.360285     -0.030524                    
P 18 -19566.359261 -17604.533939   5179.843173    207.162850                    
V 18   6917.453489    563.166615  29885.321646      0.018188                    
P 19  -8038.502848  24237.381156   6436.880953   -288.538798                    
V 19  -1809.698999  -8689.455742  30580.494505     -0.036000                    
P 20   7311.806956  19119.987320 -17115.180196     65.275680                    
V 20 -19657.209639  -9006.004140 -18560.732107      0.004934                    
P 21 -14266.050550 -10031.130462  20663.545182   -239.216413                    
V 21  22089.553589 -11953.417650   9111.694958     -0.024539                    
P 22 -23800.247648  -8342.939559  -8345.658739    145.873924                    
V 22  -7093.269727  -8957.975722  28405.365007      0.001834                    
P 23    453.799262  26161.407810   3150.480235    181.317273                    
V 23  -3416.282627   3770.921715 -31645.967349     -0.038625                    
P 25 -16050.070114 -18587.986768 -10236.883016     38.183212                    
V 25  12061.762637   5092.796360 -28207.691582      0.009087                    
P 26  12290.880955 -17843.330791  14491.189899   -334.132543                    
V 26   -769.336879  19684.526686  24230.219111      0.117188                    
P 27  13935.815965 -17691.468656 -13051.542325    413.484224                    
V 27  16606.863417  -6632.522119  26054.038074      0.040330                    
P 28  22984.552967  12069.410877  -5567.531353    169.028392                    
V 28   5046.081172   6212.711584  30983.377744      0.038776                    
P 29  -4723.520349 -24108.191445  10208.062880    337.743159                    
V 29   3612.197976 -12562.860450 -28116.806488      0.040516                    
P 30 -21917.811076    195.327372  14631.333525   -323.509817                    
V 30 -16066.312007 -10777.426972 -23355.444195     -0.237173                    
P 31 -24684.417643   6019.792325  -7970.091684    263.195928                    
V 31   8444.477638  -6173.589714 -29871.595714      0.027293                    
P 32  -2269.582970  16730.086887 -20408.774241   -469.686978                    
V 32 -21184.842327 -15592.316686  -9845.053193     -0.042519                    
EOF
